ONEWEB-0094             
1 45450U 20020AC  25230.82605644  .00000118  00000+0  26851-3 0  9993
2 45450  87.9028  65.9984 0001844  88.1918 271.9425 13.17891259266490
ONEWEB-0087             
1 45451U 20020AD  25230.81973054  .00000245  00000+0  65642-3 0  9998
2 45451  87.8782  81.2621 0001964  82.4373 277.6978 13.11417124262964
ONEWEB-0082             
1 45452U 20020AE  25230.58762559  .00000329  00000+0  89256-3 0  9999
2 45452  87.8787  81.3339 0001795  79.0546 281.0783 13.11414597263014
ONEWEB-0050             
1 45453U 20020AF  25230.53847267  .00001945  00000+0  19453-3 0  9992
2 45453  87.9951 279.5187 0002792  41.2324 318.9115 14.90959069295328
ONEWEB-0034             
1 45454U 20020AG  25230.83769011 -.00000439  00000+0 -12735-2 0  9990
2 45454  87.8788  81.3042 0001723  83.2439 276.8885 13.11415548262973
ONEWEB-0060             
1 45455U 20020AH  25230.58001925  .00000552  00000+0  15209-2 0  9999
2 45455  87.8783  81.3842 0002750  65.5596 294.5819 13.11418599262888
ONEWEB-0086             
1 45456U 20020AJ  25230.86398964  .00000043  00000+0  84833-4 0  9999
2 45456  87.8792  81.2966 0001913  60.1408 299.9910 13.11419200262980
ONEWEB-0088             
1 45457U 20020AK  25230.84192319 -.00000510  00000+0 -14738-2 0  9990
2 45457  87.8787  81.2473 0001847  85.9177 274.2162 13.11416794262926
